SL-16 R/B               
1 22566U 93016B   25359.49788294  .00000281  00000+0  16877-3 0  9997
2 22566  71.0084  11.0073 0008044  72.2662 287.9338 14.15292962691676
COSMOS 2242             
1 22626U 93024A   25359.34313087  .00002378  00000+0  20844-3 0  9999
2 22626  82.5196 337.7972 0015928 189.2139 170.8794 14.96156581769270
SL-16 R/B               
1 22803U 93059B   25359.71921355  .00000304  00000+0  17435-3 0  9997
2 22803  70.9884 167.1155 0018592 317.3481  42.6199 14.17216231669056
ARIANE 40 R/B           
1 22830U 93061H   25359.60725421  .00000280  00000+0  11863-3 0  9996
2 22830  98.5059  64.9022 0011534 139.6887 220.5155 14.32809901683499
COSMOS 2278             
1 23087U 94023A   25359.62005558  .00000079  00000+0  66151-4 0  9991
2 23087  71.0534 330.0621 0007785 156.4486 203.6995 14.14348579634337
SL-16 R/B               
1 23088U 94023B   25359.06398120 -.00000240  00000+0 -99339-4 0  9996
2 23088  70.9978 227.6053 0002077   3.2904 356.8231 14.14999689635532
SL-16 R/B               
1 23343U 94074B   25359.67208442  .00000493  00000+0  72915-4 0  9999
2 23343  97.7189  28.4619 0008044 100.5123  14.6614 14.79303842676301
SL-16 R/B               
1 23405U 94077B   25359.64002561 -.00000200  00000+0 -77831-4 0  9992
2 23405  70.9822 148.2748 0005044 274.7902  85.2645 14.15552099605756
ARIANE 40+ R/B          
1 23561U 95021B   25359.44486390  .00000337  00000+0  12167-3 0  9998
2 23561  98.4635  66.8797 0006804  14.4215 354.6641 14.39704964608563
SL-16 R/B               
1 23705U 95058B   25359.29001954 -.00000160  00000+0 -57651-4 0  9994
2 23705  71.0217 336.4546 0014631 238.7929 121.1761 14.15481425557329
SL-16 R/B               
1 24298U 96051B   25359.23660182 -.00000013  00000+0  19464-4 0  9990
2 24298  70.7595 332.8311 0019488 246.0305 113.8774 14.12397574511136
ORBVIEW 2 (SEASTAR)     
1 24883U 97037A   25359.46231464  .00000302  00000+0  12133-3 0  9992
2 24883  98.8463 156.8575 0001223 285.0583  75.0466 14.35425810497822
