CCSDS_OMM_VERS = 2.0
CREATION_DATE  = 
ORIGINATOR     = 

OBJECT_NAME    = SL-16 R/B
OBJECT_ID      = 1993-016B
CENTER_NAME    = EARTH
REF_FRAME      = TEME
TIME_SYSTEM    = UTC
MEAN_ELEMENT_THEORY = SGP/SGP4

EPOCH          = 2025-12-25T11:56:57.086016
MEAN_MOTION    = 14.15292962
ECCENTRICITY   = .0008044
INCLINATION    = 71.0084
RA_OF_ASC_NODE = 11.0073
ARG_OF_PERICENTER = 72.2662
MEAN_ANOMALY   = 287.9338

EPHEMERIS_TYPE = 0
CLASSIFICATION_TYPE = U
NORAD_CAT_ID   = 22566
ELEMENT_SET_NO = 999
REV_AT_EPOCH   = 69167
BSTAR          = .16877E-3
MEAN_MOTION_DOT = .281E-5
MEAN_MOTION_DDOT = 0

CCSDS_OMM_VERS = 2.0
CREATION_DATE  = 
ORIGINATOR     = 

OBJECT_NAME    = COSMOS 2242
OBJECT_ID      = 1993-024A
CENTER_NAME    = EARTH
REF_FRAME      = TEME
TIME_SYSTEM    = UTC
MEAN_ELEMENT_THEORY = SGP/SGP4

EPOCH          = 2025-12-25T08:14:06.507168
MEAN_MOTION    = 14.96156581
ECCENTRICITY   = .0015928
INCLINATION    = 82.5196
RA_OF_ASC_NODE = 337.7972
ARG_OF_PERICENTER = 189.2139
MEAN_ANOMALY   = 170.8794

EPHEMERIS_TYPE = 0
CLASSIFICATION_TYPE = U
NORAD_CAT_ID   = 22626
ELEMENT_SET_NO = 999
REV_AT_EPOCH   = 76927
BSTAR          = .20844E-3
MEAN_MOTION_DOT = .2378E-4
MEAN_MOTION_DDOT = 0

CCSDS_OMM_VERS = 2.0
CREATION_DATE  = 
ORIGINATOR     = 

OBJECT_NAME    = SL-16 R/B
OBJECT_ID      = 1993-059B
CENTER_NAME    = EARTH
REF_FRAME      = TEME
TIME_SYSTEM    = UTC
MEAN_ELEMENT_THEORY = SGP/SGP4

EPOCH          = 2025-12-25T17:15:40.050720
MEAN_MOTION    = 14.17216231
ECCENTRICITY   = .0018592
INCLINATION    = 70.9884
RA_OF_ASC_NODE = 167.1155
ARG_OF_PERICENTER = 317.3481
MEAN_ANOMALY   = 42.6199

EPHEMERIS_TYPE = 0
CLASSIFICATION_TYPE = U
NORAD_CAT_ID   = 22803
ELEMENT_SET_NO = 999
REV_AT_EPOCH   = 66905
BSTAR          = .17435E-3
MEAN_MOTION_DOT = .304E-5
MEAN_MOTION_DDOT = 0

CCSDS_OMM_VERS = 2.0
CREATION_DATE  = 
ORIGINATOR     = 

OBJECT_NAME    = ARIANE 40 R/B
OBJECT_ID      = 1993-061H
CENTER_NAME    = EARTH
REF_FRAME      = TEME
TIME_SYSTEM    = UTC
MEAN_ELEMENT_THEORY = SGP/SGP4

EPOCH          = 2025-12-25T14:34:26.763744
MEAN_MOTION    = 14.32809901
ECCENTRICITY   = .0011534
INCLINATION    = 98.5059
RA_OF_ASC_NODE = 64.9022
ARG_OF_PERICENTER = 139.6887
MEAN_ANOMALY   = 220.5155

EPHEMERIS_TYPE = 0
CLASSIFICATION_TYPE = U
NORAD_CAT_ID   = 22830
ELEMENT_SET_NO = 999
REV_AT_EPOCH   = 68349
BSTAR          = .11863E-3
MEAN_MOTION_DOT = .28E-5
MEAN_MOTION_DDOT = 0

CCSDS_OMM_VERS = 2.0
CREATION_DATE  = 
ORIGINATOR     = 

OBJECT_NAME    = COSMOS 2278
OBJECT_ID      = 1994-023A
CENTER_NAME    = EARTH
REF_FRAME      = TEME
TIME_SYSTEM    = UTC
MEAN_ELEMENT_THEORY = SGP/SGP4

EPOCH          = 2025-12-25T14:52:52.802112
MEAN_MOTION    = 14.14348579
ECCENTRICITY   = .0007785
INCLINATION    = 71.0534
RA_OF_ASC_NODE = 330.0621
ARG_OF_PERICENTER = 156.4486
MEAN_ANOMALY   = 203.6995

EPHEMERIS_TYPE = 0
CLASSIFICATION_TYPE = U
NORAD_CAT_ID   = 23087
ELEMENT_SET_NO = 999
REV_AT_EPOCH   = 63433
BSTAR          = .66151E-4
MEAN_MOTION_DOT = .79E-6
MEAN_MOTION_DDOT = 0

CCSDS_OMM_VERS = 2.0
CREATION_DATE  = 
ORIGINATOR     = 

OBJECT_NAME    = SL-16 R/B
OBJECT_ID      = 1994-023B
CENTER_NAME    = EARTH
REF_FRAME      = TEME
TIME_SYSTEM    = UTC
MEAN_ELEMENT_THEORY = SGP/SGP4

EPOCH          = 2025-12-25T01:32:07.975680
MEAN_MOTION    = 14.14999689
ECCENTRICITY   = .00020771
INCLINATION    = 70.9978
RA_OF_ASC_NODE = 227.6053
ARG_OF_PERICENTER = 3.2904
MEAN_ANOMALY   = 356.8231

EPHEMERIS_TYPE = 0
CLASSIFICATION_TYPE = U
NORAD_CAT_ID   = 23088
ELEMENT_SET_NO = 999
REV_AT_EPOCH   = 63553
BSTAR          = -.99338811E-4
MEAN_MOTION_DOT = -.24E-5
MEAN_MOTION_DDOT = 0

CCSDS_OMM_VERS = 2.0
CREATION_DATE  = 
ORIGINATOR     = 

OBJECT_NAME    = SL-16 R/B
OBJECT_ID      = 1994-074B
CENTER_NAME    = EARTH
REF_FRAME      = TEME
TIME_SYSTEM    = UTC
MEAN_ELEMENT_THEORY = SGP/SGP4

EPOCH          = 2025-12-25T16:07:48.093888
MEAN_MOTION    = 14.79303842
ECCENTRICITY   = .0008044
INCLINATION    = 97.7189
RA_OF_ASC_NODE = 28.4619
ARG_OF_PERICENTER = 100.5123
MEAN_ANOMALY   = 14.6614

EPHEMERIS_TYPE = 0
CLASSIFICATION_TYPE = U
NORAD_CAT_ID   = 23343
ELEMENT_SET_NO = 999
REV_AT_EPOCH   = 67630
BSTAR          = .72915E-4
MEAN_MOTION_DOT = .493E-5
MEAN_MOTION_DDOT = 0

CCSDS_OMM_VERS = 2.0
CREATION_DATE  = 
ORIGINATOR     = 

OBJECT_NAME    = SL-16 R/B
OBJECT_ID      = 1994-077B
CENTER_NAME    = EARTH
REF_FRAME      = TEME
TIME_SYSTEM    = UTC
MEAN_ELEMENT_THEORY = SGP/SGP4

EPOCH          = 2025-12-25T15:21:38.212704
MEAN_MOTION    = 14.15552099
ECCENTRICITY   = .0005044
INCLINATION    = 70.9822
RA_OF_ASC_NODE = 148.2748
ARG_OF_PERICENTER = 274.7902
MEAN_ANOMALY   = 85.2645

EPHEMERIS_TYPE = 0
CLASSIFICATION_TYPE = U
NORAD_CAT_ID   = 23405
ELEMENT_SET_NO = 999
REV_AT_EPOCH   = 60575
BSTAR          = -.77831E-4
MEAN_MOTION_DOT = -.2E-5
MEAN_MOTION_DDOT = 0

CCSDS_OMM_VERS = 2.0
CREATION_DATE  = 
ORIGINATOR     = 

OBJECT_NAME    = ARIANE 40+ R/B
OBJECT_ID      = 1995-021B
CENTER_NAME    = EARTH
REF_FRAME      = TEME
TIME_SYSTEM    = UTC
MEAN_ELEMENT_THEORY = SGP/SGP4

EPOCH          = 2025-12-25T10:40:36.240960
MEAN_MOTION    = 14.39704964
ECCENTRICITY   = .0006804
INCLINATION    = 98.4635
RA_OF_ASC_NODE = 66.8797
ARG_OF_PERICENTER = 14.4215
MEAN_ANOMALY   = 354.6641

EPHEMERIS_TYPE = 0
CLASSIFICATION_TYPE = U
NORAD_CAT_ID   = 23561
ELEMENT_SET_NO = 999
REV_AT_EPOCH   = 60856
BSTAR          = .12167E-3
MEAN_MOTION_DOT = .337E-5
MEAN_MOTION_DDOT = 0

CCSDS_OMM_VERS = 2.0
CREATION_DATE  = 
ORIGINATOR     = 

OBJECT_NAME    = SL-16 R/B
OBJECT_ID      = 1995-058B
CENTER_NAME    = EARTH
REF_FRAME      = TEME
TIME_SYSTEM    = UTC
MEAN_ELEMENT_THEORY = SGP/SGP4

EPOCH          = 2025-12-25T06:57:37.688256
MEAN_MOTION    = 14.15481425
ECCENTRICITY   = .0014631
INCLINATION    = 71.0217
RA_OF_ASC_NODE = 336.4546
ARG_OF_PERICENTER = 238.7929
MEAN_ANOMALY   = 121.1761

EPHEMERIS_TYPE = 0
CLASSIFICATION_TYPE = U
NORAD_CAT_ID   = 23705
ELEMENT_SET_NO = 999
REV_AT_EPOCH   = 55732
BSTAR          = -.57651E-4
MEAN_MOTION_DOT = -.16E-5
MEAN_MOTION_DDOT = 0

CCSDS_OMM_VERS = 2.0
CREATION_DATE  = 
ORIGINATOR     = 

OBJECT_NAME    = SL-16 R/B
OBJECT_ID      = 1996-051B
CENTER_NAME    = EARTH
REF_FRAME      = TEME
TIME_SYSTEM    = UTC
MEAN_ELEMENT_THEORY = SGP/SGP4

EPOCH          = 2025-12-25T05:40:42.397248
MEAN_MOTION    = 14.12397574
ECCENTRICITY   = .0019488
INCLINATION    = 70.7595
RA_OF_ASC_NODE = 332.8311
ARG_OF_PERICENTER = 246.0305
MEAN_ANOMALY   = 113.8774

EPHEMERIS_TYPE = 0
CLASSIFICATION_TYPE = U
NORAD_CAT_ID   = 24298
ELEMENT_SET_NO = 999
REV_AT_EPOCH   = 51113
BSTAR          = .19464E-4
MEAN_MOTION_DOT = -.13E-6
MEAN_MOTION_DDOT = 0

CCSDS_OMM_VERS = 2.0
CREATION_DATE  = 
ORIGINATOR     = 

OBJECT_NAME    = ORBVIEW 2 (SEASTAR)
OBJECT_ID      = 1997-037A
CENTER_NAME    = EARTH
REF_FRAME      = TEME
TIME_SYSTEM    = UTC
MEAN_ELEMENT_THEORY = SGP/SGP4

EPOCH          = 2025-12-25T11:05:43.984896
MEAN_MOTION    = 14.35425810
ECCENTRICITY   = .0001223
INCLINATION    = 98.8463
RA_OF_ASC_NODE = 156.8575
ARG_OF_PERICENTER = 285.0583
MEAN_ANOMALY   = 75.0466

EPHEMERIS_TYPE = 0
CLASSIFICATION_TYPE = U
NORAD_CAT_ID   = 24883
ELEMENT_SET_NO = 999
REV_AT_EPOCH   = 49782
BSTAR          = .12133E-3
MEAN_MOTION_DOT = .302E-5
MEAN_MOTION_DDOT = 0

